CCSDS_OMM_VERS = 2.0
CREATION_DATE  = 
ORIGINATOR     = 

OBJECT_NAME    = SL-16 R/B
OBJECT_ID      = 1993-016B
CENTER_NAME    = EARTH
REF_FRAME      = TEME
TIME_SYSTEM    = UTC
MEAN_ELEMENT_THEORY = SGP/SGP4

EPOCH          = 2026-02-13T01:01:43.649184
MEAN_MOTION    = 14.15302364
ECCENTRICITY   = .00105037
INCLINATION    = 71.0056
RA_OF_ASC_NODE = 266.9501
ARG_OF_PERICENTER = 347.6595
MEAN_ANOMALY   = 12.4269

EPHEMERIS_TYPE = 0
CLASSIFICATION_TYPE = U
NORAD_CAT_ID   = 22566
ELEMENT_SET_NO = 999
REV_AT_EPOCH   = 69868
BSTAR          = -.98662798E-4
MEAN_MOTION_DOT = -.24E-5
MEAN_MOTION_DDOT = 0

CCSDS_OMM_VERS = 2.0
CREATION_DATE  = 
ORIGINATOR     = 

OBJECT_NAME    = COSMOS 2242
OBJECT_ID      = 1993-024A
CENTER_NAME    = EARTH
REF_FRAME      = TEME
TIME_SYSTEM    = UTC
MEAN_ELEMENT_THEORY = SGP/SGP4

EPOCH          = 2026-02-13T03:55:29.042112
MEAN_MOTION    = 14.96447696
ECCENTRICITY   = .00173122
INCLINATION    = 82.5190
RA_OF_ASC_NODE = 290.1760
ARG_OF_PERICENTER = 32.3149
MEAN_ANOMALY   = 327.9129

EPHEMERIS_TYPE = 0
CLASSIFICATION_TYPE = U
NORAD_CAT_ID   = 22626
ELEMENT_SET_NO = 999
REV_AT_EPOCH   = 77672
BSTAR          = .19750707E-3
MEAN_MOTION_DOT = .2272E-4
MEAN_MOTION_DDOT = 0

CCSDS_OMM_VERS = 2.0
CREATION_DATE  = 
ORIGINATOR     = 

OBJECT_NAME    = SL-16 R/B
OBJECT_ID      = 1993-059B
CENTER_NAME    = EARTH
REF_FRAME      = TEME
TIME_SYSTEM    = UTC
MEAN_ELEMENT_THEORY = SGP/SGP4

EPOCH          = 2026-02-13T11:30:07.600032
MEAN_MOTION    = 14.17228174
ECCENTRICITY   = .0019461
INCLINATION    = 70.9890
RA_OF_ASC_NODE = 62.1824
ARG_OF_PERICENTER = 249.9138
MEAN_ANOMALY   = 109.9892

EPHEMERIS_TYPE = 0
CLASSIFICATION_TYPE = U
NORAD_CAT_ID   = 22803
ELEMENT_SET_NO = 999
REV_AT_EPOCH   = 67610
BSTAR          = -.31863E-4
MEAN_MOTION_DOT = -.113E-5
MEAN_MOTION_DDOT = 0

CCSDS_OMM_VERS = 2.0
CREATION_DATE  = 
ORIGINATOR     = 

OBJECT_NAME    = ARIANE 40 R/B
OBJECT_ID      = 1993-061H
CENTER_NAME    = EARTH
REF_FRAME      = TEME
TIME_SYSTEM    = UTC
MEAN_ELEMENT_THEORY = SGP/SGP4

EPOCH          = 2026-02-13T04:30:40.214016
MEAN_MOTION    = 14.32847753
ECCENTRICITY   = .00105185
INCLINATION    = 98.4970
RA_OF_ASC_NODE = 113.5527
ARG_OF_PERICENTER = 3.2933
MEAN_ANOMALY   = 356.8318

EPHEMERIS_TYPE = 0
CLASSIFICATION_TYPE = U
NORAD_CAT_ID   = 22830
ELEMENT_SET_NO = 999
REV_AT_EPOCH   = 69059
BSTAR          = .87359457E-4
MEAN_MOTION_DOT = .195E-5
MEAN_MOTION_DDOT = 0

CCSDS_OMM_VERS = 2.0
CREATION_DATE  = 
ORIGINATOR     = 

OBJECT_NAME    = COSMOS 2278
OBJECT_ID      = 1994-023A
CENTER_NAME    = EARTH
REF_FRAME      = TEME
TIME_SYSTEM    = UTC
MEAN_ELEMENT_THEORY = SGP/SGP4

EPOCH          = 2026-02-13T11:32:23.229024
MEAN_MOTION    = 14.14363610
ECCENTRICITY   = .0006852
INCLINATION    = 71.0501
RA_OF_ASC_NODE = 225.7454
ARG_OF_PERICENTER = 60.1211
MEAN_ANOMALY   = 300.0592

EPHEMERIS_TYPE = 0
CLASSIFICATION_TYPE = U
NORAD_CAT_ID   = 23087
ELEMENT_SET_NO = 999
REV_AT_EPOCH   = 64138
BSTAR          = .47143E-4
MEAN_MOTION_DOT = .43E-6
MEAN_MOTION_DDOT = 0

CCSDS_OMM_VERS = 2.0
CREATION_DATE  = 
ORIGINATOR     = 

OBJECT_NAME    = SL-16 R/B
OBJECT_ID      = 1994-023B
CENTER_NAME    = EARTH
REF_FRAME      = TEME
TIME_SYSTEM    = UTC
MEAN_ELEMENT_THEORY = SGP/SGP4

EPOCH          = 2026-02-13T11:13:19.808832
MEAN_MOTION    = 14.15005267
ECCENTRICITY   = .0004592
INCLINATION    = 70.9995
RA_OF_ASC_NODE = 121.7591
ARG_OF_PERICENTER = 308.3688
MEAN_ANOMALY   = 51.7021

EPHEMERIS_TYPE = 0
CLASSIFICATION_TYPE = U
NORAD_CAT_ID   = 23088
ELEMENT_SET_NO = 999
REV_AT_EPOCH   = 64266
BSTAR          = .15505E-3
MEAN_MOTION_DOT = .253E-5
MEAN_MOTION_DDOT = 0

CCSDS_OMM_VERS = 2.0
CREATION_DATE  = 
ORIGINATOR     = 

OBJECT_NAME    = SL-16 R/B
OBJECT_ID      = 1994-074B
CENTER_NAME    = EARTH
REF_FRAME      = TEME
TIME_SYSTEM    = UTC
MEAN_ELEMENT_THEORY = SGP/SGP4

EPOCH          = 2026-02-13T00:54:54.190944
MEAN_MOTION    = 14.79378090
ECCENTRICITY   = .0005388
INCLINATION    = 97.7142
RA_OF_ASC_NODE = 75.8505
ARG_OF_PERICENTER = 310.2497
MEAN_ANOMALY   = 109.5152

EPHEMERIS_TYPE = 0
CLASSIFICATION_TYPE = U
NORAD_CAT_ID   = 23343
ELEMENT_SET_NO = 999
REV_AT_EPOCH   = 68360
BSTAR          = .7623865E-4
MEAN_MOTION_DOT = .519E-5
MEAN_MOTION_DDOT = 0

CCSDS_OMM_VERS = 2.0
CREATION_DATE  = 
ORIGINATOR     = 

OBJECT_NAME    = SL-16 R/B
OBJECT_ID      = 1994-077B
CENTER_NAME    = EARTH
REF_FRAME      = TEME
TIME_SYSTEM    = UTC
MEAN_ELEMENT_THEORY = SGP/SGP4

EPOCH          = 2026-02-13T11:00:27.727200
MEAN_MOTION    = 14.15559986
ECCENTRICITY   = .0004083
INCLINATION    = 70.9823
RA_OF_ASC_NODE = 43.4655
ARG_OF_PERICENTER = 232.5966
MEAN_ANOMALY   = 127.4785

EPHEMERIS_TYPE = 0
CLASSIFICATION_TYPE = U
NORAD_CAT_ID   = 23405
ELEMENT_SET_NO = 999
REV_AT_EPOCH   = 61280
BSTAR          = .19011E-3
MEAN_MOTION_DOT = .324E-5
MEAN_MOTION_DDOT = 0

CCSDS_OMM_VERS = 2.0
CREATION_DATE  = 
ORIGINATOR     = 

OBJECT_NAME    = ARIANE 40+ R/B
OBJECT_ID      = 1995-021B
CENTER_NAME    = EARTH
REF_FRAME      = TEME
TIME_SYSTEM    = UTC
MEAN_ELEMENT_THEORY = SGP/SGP4

EPOCH          = 2026-02-13T04:58:10.841088
MEAN_MOTION    = 14.39754144
ECCENTRICITY   = .00063456
INCLINATION    = 98.4550
RA_OF_ASC_NODE = 116.0152
ARG_OF_PERICENTER = 206.0852
MEAN_ANOMALY   = 172.8940

EPHEMERIS_TYPE = 0
CLASSIFICATION_TYPE = U
NORAD_CAT_ID   = 23561
ELEMENT_SET_NO = 999
REV_AT_EPOCH   = 61572
BSTAR          = .11109352E-3
MEAN_MOTION_DOT = .305E-5
MEAN_MOTION_DDOT = 0

CCSDS_OMM_VERS = 2.0
CREATION_DATE  = 
ORIGINATOR     = 

OBJECT_NAME    = SL-16 R/B
OBJECT_ID      = 1995-058B
CENTER_NAME    = EARTH
REF_FRAME      = TEME
TIME_SYSTEM    = UTC
MEAN_ELEMENT_THEORY = SGP/SGP4

EPOCH          = 2026-02-13T11:08:47.751648
MEAN_MOTION    = 14.15495322
ECCENTRICITY   = .0011839
INCLINATION    = 71.0195
RA_OF_ASC_NODE = 231.1142
ARG_OF_PERICENTER = 166.7179
MEAN_ANOMALY   = 193.4258

EPHEMERIS_TYPE = 0
CLASSIFICATION_TYPE = U
NORAD_CAT_ID   = 23705
ELEMENT_SET_NO = 999
REV_AT_EPOCH   = 56442
BSTAR          = .10124E-3
MEAN_MOTION_DOT = .15E-5
MEAN_MOTION_DDOT = 0

CCSDS_OMM_VERS = 2.0
CREATION_DATE  = 
ORIGINATOR     = 

OBJECT_NAME    = SL-16 R/B
OBJECT_ID      = 1996-051B
CENTER_NAME    = EARTH
REF_FRAME      = TEME
TIME_SYSTEM    = UTC
MEAN_ELEMENT_THEORY = SGP/SGP4

EPOCH          = 2026-02-13T12:29:00.982464
MEAN_MOTION    = 14.12408771
ECCENTRICITY   = .0017133
INCLINATION    = 70.7567
RA_OF_ASC_NODE = 226.3960
ARG_OF_PERICENTER = 182.2149
MEAN_ANOMALY   = 177.8898

EPHEMERIS_TYPE = 0
CLASSIFICATION_TYPE = U
NORAD_CAT_ID   = 24298
ELEMENT_SET_NO = 999
REV_AT_EPOCH   = 51823
BSTAR          = .85985E-4
MEAN_MOTION_DOT = .11E-5
MEAN_MOTION_DDOT = 0

CCSDS_OMM_VERS = 2.0
CREATION_DATE  = 
ORIGINATOR     = 

OBJECT_NAME    = ORBVIEW 2 (SEASTAR)
OBJECT_ID      = 1997-037A
CENTER_NAME    = EARTH
REF_FRAME      = TEME
TIME_SYSTEM    = UTC
MEAN_ELEMENT_THEORY = SGP/SGP4

EPOCH          = 2026-02-13T10:33:54.230400
MEAN_MOTION    = 14.35476110
ECCENTRICITY   = .00031
INCLINATION    = 98.8524
RA_OF_ASC_NODE = 208.1153
ARG_OF_PERICENTER = 121.0502
MEAN_ANOMALY   = 239.0987

EPHEMERIS_TYPE = 0
CLASSIFICATION_TYPE = U
NORAD_CAT_ID   = 24883
ELEMENT_SET_NO = 999
REV_AT_EPOCH   = 50499
BSTAR          = .14231E-3
MEAN_MOTION_DOT = .363E-5
MEAN_MOTION_DDOT = 0

