SL-16 R/B               
1 22566U 93016B   26044.04286631 -.00000240  00000+0 -98663-4 0  9999
2 22566  71.0056 266.9501 0010503 347.6595  12.4269 14.15302364698689
COSMOS 2242             
1 22626U 93024A   26044.16353058  .00002272  00000+0  19751-3 0  9991
2 22626  82.5190 290.1760 0017312  32.3149 327.9129 14.96447696776724
SL-16 R/B               
1 22803U 93059B   26044.47925463 -.00000113  00000+0 -31863-4 0  9998
2 22803  70.9890  62.1824 0019461 249.9138 109.9892 14.17228174676105
ARIANE 40 R/B           
1 22830U 93061H   26044.18796544  .00000195  00000+0  87359-4 0  9994
2 22830  98.4970 113.5527 0010518   3.2933 356.8318 14.32847753690590
COSMOS 2278             
1 23087U 94023A   26044.48082441  .00000043  00000+0  47143-4 0  9994
2 23087  71.0501 225.7454 0006852  60.1211 300.0592 14.14363610641387
SL-16 R/B               
1 23088U 94023B   26044.46759038  .00000253  00000+0  15505-3 0  9995
2 23088  70.9995 121.7591 0004592 308.3688  51.7021 14.15005267642665
SL-16 R/B               
1 23343U 94074B   26044.03812721  .00000519  00000+0  76239-4 0  9994
2 23343  97.7142  75.8505 0005388 310.2497 109.5152 14.79378090683601
SL-16 R/B               
1 23405U 94077B   26044.45865425  .00000324  00000+0  19011-3 0  9999
2 23405  70.9823  43.4655 0004083 232.5966 127.4785 14.15559986612804
ARIANE 40+ R/B          
1 23561U 95021B   26044.20706992  .00000305  00000+0  11109-3 0  9997
2 23561  98.4550 116.0152 0006345 206.0852 172.8940 14.39754144615721
SL-16 R/B               
1 23705U 95058B   26044.46444157  .00000150  00000+0  10124-3 0  9991
2 23705  71.0195 231.1142 0011839 166.7179 193.4258 14.15495322564424
SL-16 R/B               
1 24298U 96051B   26044.52015026  .00000110  00000+0  85985-4 0  9993
2 24298  70.7567 226.3960 0017133 182.2149 177.8898 14.12408771518231
ORBVIEW 2 (SEASTAR)     
1 24883U 97037A   26044.44021100  .00000363  00000+0  14231-3 0  9994
2 24883  98.8524 208.1153 0003100 121.0502 239.0987 14.35476110504995
